{"type":"FeatureCollection","features":[{"type":"Feature","geometry":{"type":"Point","coordinates":[-79.96733,32.72279]},"properties":{"project":"DESC_1","utility":"DESC","name":"Queensboro","confidence":"high","method":"manual: Sperry sample (Projects_Overlaps.xlsx)"}},{"type":"Feature","geometry":{"type":"Point","coordinates":[-79.92559,32.78434]},"properties":{"project":"DESC_2","utility":"DESC","name":"Union Pier","confidence":"low","method":"approximate: Nominatim landuse/industrial (town/street level, not the substation itself)"}},{"type":"Feature","geometry":{"type":"Point","coordinates":[-81.03249,32.33376]},"properties":{"project":"DESC_3","utility":"DESC","name":"Okatie","confidence":"high","method":"manual: Sperry sample (Projects_Overlaps.xlsx)"}},{"type":"Feature","geometry":{"type":"Point","coordinates":[-79.84228,32.9414]},"properties":{"project":"DESC_4","utility":"DESC","name":"Cainhoy","confidence":"high","method":"OSM name match (exact)"}},{"type":"Feature","geometry":{"type":"Point","coordinates":[-79.78844,32.85994]},"properties":{"project":"DESC_4","utility":"DESC","name":"Hamlin","confidence":"high","method":"OSM name match (exact)"}},{"type":"Feature","geometry":{"type":"Point","coordinates":[-79.46266,34.73939]},"properties":{"project":"DESC_5","utility":"DESC","name":"Eastover","confidence":"medium","method":"OSM name match (all name words present)"}},{"type":"Feature","geometry":{"type":"Point","coordinates":[-80.72102,32.43649]},"properties":{"project":"DESC_6","utility":"DESC","name":"Burton","confidence":"high","method":"OSM name match (exact)"}},{"type":"Feature","geometry":{"type":"Point","coordinates":[-80.56066,32.38686]},"properties":{"project":"DESC_6","utility":"DESC","name":"St Helena","confidence":"low","method":"approximate: Nominatim place/island (town/street level, not the substation itself)"}},{"type":"Feature","geometry":{"type":"Point","coordinates":[-80.72102,32.43649]},"properties":{"project":"DESC_7","utility":"DESC","name":"Burton","confidence":"high","method":"OSM name match (exact)"}},{"type":"Feature","geometry":{"type":"Point","coordinates":[-80.56066,32.38686]},"properties":{"project":"DESC_7","utility":"DESC","name":"St Helena","confidence":"low","method":"approximate: Nominatim place/island (town/street level, not the substation itself)"}},{"type":"Feature","geometry":{"type":"Point","coordinates":[-81.3149,34.296]},"properties":{"project":"DESC_8","utility":"DESC","name":"VCS1","confidence":"high","method":"manual: OSM name (alias)"}},{"type":"Feature","geometry":{"type":"Point","coordinates":[-81.06156,34.05761]},"properties":{"project":"DESC_8","utility":"DESC","name":"Denny Terrace","confidence":"high","method":"OSM name match (exact)"}},{"type":"Feature","geometry":{"type":"Point","coordinates":[-80.62842,33.82131]},"properties":{"project":"DESC_9","utility":"DESC","name":"Wateree","confidence":"high","method":"OSM name match (exact)"}},{"type":"Feature","geometry":{"type":"Point","coordinates":[-80.93699,34.13694]},"properties":{"project":"DESC_9","utility":"DESC","name":"Killian","confidence":"low","method":"approximate: Nominatim place/neighbourhood (town/street level, not the substation itself)"}},{"type":"Feature","geometry":{"type":"Point","coordinates":[-81.03249,32.33376]},"properties":{"project":"DESC_10","utility":"DESC","name":"Okatie","confidence":"high","method":"manual: Sperry sample (Projects_Overlaps.xlsx)"}},{"type":"Feature","geometry":{"type":"Point","coordinates":[-80.85338,32.23503]},"properties":{"project":"DESC_10","utility":"DESC","name":"Bluffton","confidence":"high","method":"OSM name match (exact)"}},{"type":"Feature","geometry":{"type":"Point","coordinates":[-80.87703,33.90432]},"properties":{"project":"DESC_11","utility":"DESC","name":"Hopkins","confidence":"low","method":"approximate: Nominatim place/hamlet (town/street level, not the substation itself)"}},{"type":"Feature","geometry":{"type":"Point","coordinates":[-80.01462,32.85008]},"properties":{"project":"DESC_12","utility":"DESC","name":"Faber Place","confidence":"high","method":"OSM name match (exact)"}},{"type":"Feature","geometry":{"type":"Point","coordinates":[-79.96342,32.74212]},"properties":{"project":"DESC_12","utility":"DESC","name":"Bayfront","confidence":"low","method":"approximate: Nominatim place/hamlet (town/street level, not the substation itself)"}},{"type":"Feature","geometry":{"type":"Point","coordinates":[-80.87703,33.90432]},"properties":{"project":"DESC_13","utility":"DESC","name":"Hopkins","confidence":"low","method":"approximate: Nominatim place/hamlet (town/street level, not the substation itself)"}},{"type":"Feature","geometry":{"type":"Point","coordinates":[-82.05136,33.5626]},"properties":{"project":"DESC_14","utility":"DESC","name":"Stevens Creek","confidence":"high","method":"OSM name match (exact)"}},{"type":"Feature","geometry":{"type":"Point","coordinates":[-82.15948,33.65682]},"properties":{"project":"DESC_14","utility":"DESC","name":"Hooks","confidence":"medium","method":"manual: OSM power-line trace"}},{"type":"Feature","geometry":{"type":"Point","coordinates":[-82.05136,33.5626]},"properties":{"project":"DESC_15","utility":"DESC","name":"Stevens Creek","confidence":"high","method":"OSM name match (exact)"}},{"type":"Feature","geometry":{"type":"Point","coordinates":[-82.15948,33.65682]},"properties":{"project":"DESC_15","utility":"DESC","name":"Hooks","confidence":"medium","method":"manual: OSM power-line trace"}},{"type":"Feature","geometry":{"type":"Point","coordinates":[-81.05982,33.95376]},"properties":{"project":"DESC_16","utility":"DESC","name":"Edenwood","confidence":"low","method":"approximate: Nominatim place/hamlet (town/street level, not the substation itself)"}},{"type":"Feature","geometry":{"type":"Point","coordinates":[-80.45117,33.20991]},"properties":{"project":"DESC_18","utility":"DESC","name":"Harleyville","confidence":"high","method":"OSM name match (exact)"}},{"type":"Feature","geometry":{"type":"Point","coordinates":[-80.22083,32.98737]},"properties":{"project":"DESC_19","utility":"DESC","name":"Summerville","confidence":"medium","method":"OSM name match (all name words present)"}},{"type":"Feature","geometry":{"type":"Point","coordinates":[-80.6206,33.0641]},"properties":{"project":"DESC_20","utility":"DESC","name":"Canadys","confidence":"high","method":"OSM name match (exact)"}},{"type":"Feature","geometry":{"type":"Point","coordinates":[-80.63038,32.78962]},"properties":{"project":"DESC_20","utility":"DESC","name":"Ritter","confidence":"low","method":"approximate: Nominatim place/hamlet (town/street level, not the substation itself)"}},{"type":"Feature","geometry":{"type":"Point","coordinates":[-80.86379,32.69743]},"properties":{"project":"DESC_21","utility":"DESC","name":"Yemassee","confidence":"high","method":"OSM name match (exact)"}},{"type":"Feature","geometry":{"type":"Point","coordinates":[-80.63038,32.78962]},"properties":{"project":"DESC_21","utility":"DESC","name":"Ritter","confidence":"low","method":"approximate: Nominatim place/hamlet (town/street level, not the substation itself)"}},{"type":"Feature","geometry":{"type":"Point","coordinates":[-81.03249,32.33376]},"properties":{"project":"DESC_22","utility":"DESC","name":"Okatie","confidence":"high","method":"manual: Sperry sample (Projects_Overlaps.xlsx)"}},{"type":"Feature","geometry":{"type":"Point","coordinates":[-81.07584,32.21132]},"properties":{"project":"DESC_22","utility":"DESC","name":"Riverport","confidence":"low","method":"approximate: Nominatim highway/unclassified (town/street level, not the substation itself)"}},{"type":"Feature","geometry":{"type":"Point","coordinates":[-81.1246,32.35912]},"properties":{"project":"DESC_23","utility":"DESC","name":"Jasper","confidence":"high","method":"OSM name match (exact)"}},{"type":"Feature","geometry":{"type":"Point","coordinates":[-81.03249,32.33376]},"properties":{"project":"DESC_23","utility":"DESC","name":"Okatie","confidence":"high","method":"manual: Sperry sample (Projects_Overlaps.xlsx)"}},{"type":"Feature","geometry":{"type":"Point","coordinates":[-81.36057,33.65011]},"properties":{"project":"DESC_24","utility":"DESC","name":"Wagener","confidence":"high","method":"OSM name match (exact)"}},{"type":"Feature","geometry":{"type":"Point","coordinates":[-80.07028,32.83032]},"properties":{"project":"DESC_25","utility":"DESC","name":"Church Creek","confidence":"high","method":"OSM name match (exact)"}},{"type":"Feature","geometry":{"type":"Point","coordinates":[-80.63038,32.78962]},"properties":{"project":"DESC_25","utility":"DESC","name":"Ritter","confidence":"low","method":"approximate: Nominatim place/hamlet (town/street level, not the substation itself)"}},{"type":"Feature","geometry":{"type":"Point","coordinates":[-81.3149,34.296]},"properties":{"project":"DESC_26","utility":"DESC","name":"VCS2","confidence":"medium","method":"manual: OSM name (alias)"}},{"type":"Feature","geometry":{"type":"Point","coordinates":[-81.69772,33.87218]},"properties":{"project":"DESC_26","utility":"DESC","name":"Ward","confidence":"high","method":"OSM name match (exact)"}},{"type":"Feature","geometry":{"type":"Point","coordinates":[-80.02516,32.95333]},"properties":{"project":"DESC_27","utility":"DESC","name":"Goose Creek Reservoir","confidence":"low","method":"approximate: Nominatim natural/water (town/street level, not the substation itself)"}},{"type":"Feature","geometry":{"type":"Point","coordinates":[-80.22083,32.98737]},"properties":{"project":"DESC_28","utility":"DESC","name":"Summerville","confidence":"medium","method":"OSM name match (all name words present)"}},{"type":"Feature","geometry":{"type":"Point","coordinates":[-80.59201,33.19939]},"properties":{"project":"DESC_29","utility":"DESC","name":"St George","confidence":"high","method":"OSM name match (exact)"}},{"type":"Feature","geometry":{"type":"Point","coordinates":[-80.32398,33.89766]},"properties":{"project":"DESC_29","utility":"DESC","name":"Sumter","confidence":"high","method":"OSM name match (exact)"}},{"type":"Feature","geometry":{"type":"Point","coordinates":[-80.99012,33.91628]},"properties":{"project":"DESC_30","utility":"DESC","name":"Gills Creek","confidence":"low","method":"approximate: Nominatim waterway/stream (town/street level, not the substation itself)"}},{"type":"Feature","geometry":{"type":"Point","coordinates":[-82.15948,33.65682]},"properties":{"project":"DESC_31","utility":"DESC","name":"Hooks","confidence":"medium","method":"manual: OSM power-line trace"}},{"type":"Feature","geometry":{"type":"Point","coordinates":[-82.19593,33.66013]},"properties":{"project":"DESC_31","utility":"DESC","name":"Thurmond","confidence":"high","method":"OSM name match (exact)"}},{"type":"Feature","geometry":{"type":"Point","coordinates":[-81.56444,33.91349]},"properties":{"project":"DESC_32","utility":"DESC","name":"Batesburg","confidence":"high","method":"OSM name match (exact)"}},{"type":"Feature","geometry":{"type":"Point","coordinates":[-81.21683,34.05343]},"properties":{"project":"DESC_32","utility":"DESC","name":"Saluda County","confidence":"medium","method":"OSM name match (exact (ignoring qualifiers))"}},{"type":"Feature","geometry":{"type":"Point","coordinates":[-79.65535,33.22683]},"properties":{"project":"DESC_34","utility":"DESC","name":"Dawson","confidence":"low","method":"approximate: Nominatim place/island (town/street level, not the substation itself)"}},{"type":"Feature","geometry":{"type":"Point","coordinates":[-81.91108,33.43287]},"properties":{"project":"DESC_35","utility":"DESC","name":"Urquhart","confidence":"high","method":"manual: OSM name match (substation not plant)"}},{"type":"Feature","geometry":{"type":"Point","coordinates":[-81.66933,33.53463]},"properties":{"project":"DESC_35","utility":"DESC","name":"Toolebeck","confidence":"high","method":"OSM name match (exact)"}},{"type":"Feature","geometry":{"type":"Point","coordinates":[-79.93217,33.0177]},"properties":{"project":"DESC_36","utility":"DESC","name":"Williams","confidence":"high","method":"OSM name match (exact)"}},{"type":"Feature","geometry":{"type":"Point","coordinates":[-80.22083,32.98737]},"properties":{"project":"DESC_36","utility":"DESC","name":"Summerville","confidence":"medium","method":"OSM name match (all name words present)"}},{"type":"Feature","geometry":{"type":"Point","coordinates":[-79.84228,32.9414]},"properties":{"project":"DESC_37","utility":"DESC","name":"Cainhoy","confidence":"high","method":"OSM name match (exact)"}},{"type":"Feature","geometry":{"type":"Point","coordinates":[-79.9045,32.91938]},"properties":{"project":"DESC_38","utility":"DESC","name":"Jack Primus","confidence":"high","method":"OSM name match (exact)"}},{"type":"Feature","geometry":{"type":"Point","coordinates":[-80.07028,32.83032]},"properties":{"project":"DESC_39","utility":"DESC","name":"Church Creek","confidence":"high","method":"OSM name match (exact)"}},{"type":"Feature","geometry":{"type":"Point","coordinates":[-80.01462,32.85008]},"properties":{"project":"DESC_39","utility":"DESC","name":"Faber Place","confidence":"high","method":"OSM name match (exact)"}},{"type":"Feature","geometry":{"type":"Point","coordinates":[-80.64036,33.88649]},"properties":{"project":"DESC_40","utility":"DESC","name":"Eastover","confidence":"medium","method":"OSM name match (all name words present)"}},{"type":"Feature","geometry":{"type":"Point","coordinates":[-80.32398,33.89766]},"properties":{"project":"DESC_40","utility":"DESC","name":"Sumter","confidence":"high","method":"OSM name match (exact)"}},{"type":"Feature","geometry":{"type":"Point","coordinates":[-80.709,33.56367]},"properties":{"project":"DESC_41","utility":"DESC","name":"Cameron Jct","confidence":"medium","method":"OSM name match (exact (ignoring qualifiers))"}},{"type":"Feature","geometry":{"type":"Point","coordinates":[-80.57972,33.53238]},"properties":{"project":"DESC_41","utility":"DESC","name":"Elloree","confidence":"high","method":"OSM name match (exact)"}},{"type":"Feature","geometry":{"type":"Point","coordinates":[-80.57972,33.53238]},"properties":{"project":"DESC_42","utility":"DESC","name":"Elloree","confidence":"high","method":"OSM name match (exact)"}},{"type":"Feature","geometry":{"type":"Point","coordinates":[-80.12529,33.42341]},"properties":{"project":"DESC_42","utility":"DESC","name":"Santee City","confidence":"high","method":"OSM name match (exact (ignoring qualifiers))"}},{"type":"Feature","geometry":{"type":"Point","coordinates":[-81.91108,33.43287]},"properties":{"project":"DESC_43","utility":"DESC","name":"Urquhart","confidence":"high","method":"manual: OSM name match (substation not plant)"}},{"type":"Feature","geometry":{"type":"Point","coordinates":[-80.709,33.56367]},"properties":{"project":"DESC_44","utility":"DESC","name":"Cameron Jct","confidence":"medium","method":"OSM name match (exact (ignoring qualifiers))"}},{"type":"Feature","geometry":{"type":"Point","coordinates":[-80.709,33.56367]},"properties":{"project":"DESC_44","utility":"DESC","name":"Cameron","confidence":"high","method":"OSM name match (exact)"}},{"type":"Feature","geometry":{"type":"Point","coordinates":[-81.68078,31.29346]},"properties":{"project":"GPC_21046","utility":"GPC","name":"THALMANN","confidence":"high","method":"OSM name match (exact)"}},{"type":"Feature","geometry":{"type":"Point","coordinates":[-81.90067,30.83301]},"properties":{"project":"GPC_21046","utility":"GPC","name":"COLERAIN","confidence":"low","method":"approximate: Nominatim place/hamlet (town/street level, not the substation itself)"}},{"type":"Feature","geometry":{"type":"Point","coordinates":[-82.63628,34.00183]},"properties":{"project":"GPC_20326","utility":"GPC","name":"ANTHONY SHOALS","confidence":"high","method":"OSM name match (exact)"}},{"type":"Feature","geometry":{"type":"Point","coordinates":[-81.25315,32.00679]},"properties":{"project":"GPC_17075","utility":"GPC","name":"LITTLE OGEECHEE","confidence":"high","method":"OSM name match (exact)"}},{"type":"Feature","geometry":{"type":"Point","coordinates":[-84.46297,33.67635]},"properties":{"project":"GPC_20491","utility":"GPC","name":"EAST POINT","confidence":"high","method":"OSM name match (exact (ignoring qualifiers))"}},{"type":"Feature","geometry":{"type":"Point","coordinates":[-83.56356,32.99533]},"properties":{"project":"GPC_20474","utility":"GPC","name":"GRADY","confidence":"low","method":"OSM name match (fuzzy 0.89)"}},{"type":"Feature","geometry":{"type":"Point","coordinates":[-84.12449,33.63698]},"properties":{"project":"GPC_20490","utility":"GPC","name":"KLONDIKE","confidence":"high","method":"OSM name match (exact)"}},{"type":"Feature","geometry":{"type":"Point","coordinates":[-84.33346,33.60593]},"properties":{"project":"GPC_20300","utility":"GPC","name":"MORROW","confidence":"high","method":"OSM name match (exact)"}},{"type":"Feature","geometry":{"type":"Point","coordinates":[-84.26991,33.79711]},"properties":{"project":"GPC_20489","utility":"GPC","name":"SCOTTDALE","confidence":"low","method":"approximate: Nominatim boundary/census (town/street level, not the substation itself)"}},{"type":"Feature","geometry":{"type":"Point","coordinates":[-84.90595,33.35112]},"properties":{"project":"GPC_20668","utility":"GPC","name":"DRESDEN","confidence":"high","method":"OSM name match (exact)"}},{"type":"Feature","geometry":{"type":"Point","coordinates":[-84.91563,32.61017]},"properties":{"project":"GPC_18832","utility":"GPC","name":"FORTSON","confidence":"high","method":"OSM name match (exact)"}},{"type":"Feature","geometry":{"type":"Point","coordinates":[-84.36739,33.4819]},"properties":{"project":"GPC_21022","utility":"GPC","name":"OHARA","confidence":"low","method":"OSM name match (fuzzy 0.91)"}},{"type":"Feature","geometry":{"type":"Point","coordinates":[-81.17511,32.35212]},"properties":{"project":"GPC_20277","utility":"GPC","name":"MCINTOSH","confidence":"high","method":"OSM name match (exact)"}},{"type":"Feature","geometry":{"type":"Point","coordinates":[-81.12243,32.36884]},"properties":{"project":"GPC_20277","utility":"GPC","name":"PURRYSBURG","confidence":"medium","method":"manual: OSM power-line trace"}},{"type":"Feature","geometry":{"type":"Point","coordinates":[-82.82141,34.35708]},"properties":{"project":"GPC_21111","utility":"GPC","name":"HARTWELL DAM","confidence":"high","method":"OSM name match (exact (ignoring qualifiers))"}},{"type":"Feature","geometry":{"type":"Point","coordinates":[-82.82017,34.33933]},"properties":{"project":"GPC_21111","utility":"GPC","name":"HARTWELL ENERGY","confidence":"high","method":"OSM name match (exact)"}},{"type":"Feature","geometry":{"type":"Point","coordinates":[-82.82017,34.33933]},"properties":{"project":"GPC_21113","utility":"GPC","name":"HARTWELL ENERGY","confidence":"high","method":"OSM name match (exact)"}},{"type":"Feature","geometry":{"type":"Point","coordinates":[-83.35861,34.42254]},"properties":{"project":"GPC_21113","utility":"GPC","name":"MIDDLE FORK","confidence":"low","method":"approximate: Nominatim waterway/river (town/street level, not the substation itself)"}},{"type":"Feature","geometry":{"type":"Point","coordinates":[-81.46093,32.16662]},"properties":{"project":"GPC_19523","utility":"GPC","name":"HYUNDAI MOTORS","confidence":"high","method":"OSM name match (exact)"}},{"type":"Feature","geometry":{"type":"Point","coordinates":[-83.46405,34.25677]},"properties":{"project":"GPC_18670","utility":"GPC","name":"BANKS CROSSING","confidence":"low","method":"approximate: Nominatim place/hamlet (town/street level, not the substation itself)"}},{"type":"Feature","geometry":{"type":"Point","coordinates":[-83.73962,34.24948]},"properties":{"project":"GPC_18670","utility":"GPC","name":"POND FORK","confidence":"low","method":"approximate: Nominatim waterway/stream (town/street level, not the substation itself)"}},{"type":"Feature","geometry":{"type":"Point","coordinates":[-84.13384,31.44712]},"properties":{"project":"GPC_18492","utility":"GPC","name":"MITCHELL","confidence":"high","method":"OSM name match (exact)"}},{"type":"Feature","geometry":{"type":"Point","coordinates":[-83.54913,31.47809]},"properties":{"project":"GPC_18492","utility":"GPC","name":"NORTH TIFTON","confidence":"high","method":"OSM name match (exact)"}},{"type":"Feature","geometry":{"type":"Point","coordinates":[-84.50521,33.75927]},"properties":{"project":"GPC_19676","utility":"GPC","name":"ADAMSVILLE","confidence":"low","method":"approximate: Nominatim place/quarter (town/street level, not the substation itself)"}},{"type":"Feature","geometry":{"type":"Point","coordinates":[-83.70046,32.68514]},"properties":{"project":"GPC_18800","utility":"GPC","name":"ECHECONNEE","confidence":"low","method":"approximate: Nominatim place/hamlet (town/street level, not the substation itself)"}},{"type":"Feature","geometry":{"type":"Point","coordinates":[-85.14272,33.70919]},"properties":{"project":"GPC_19187","utility":"GPC","name":"BREMEN","confidence":"high","method":"OSM name match (exact (ignoring qualifiers))"}},{"type":"Feature","geometry":{"type":"Point","coordinates":[-83.60002,32.56479]},"properties":{"project":"GPC_18153","utility":"GPC","name":"BONAIRE PRIMARY","confidence":"high","method":"OSM name match (exact)"}},{"type":"Feature","geometry":{"type":"Point","coordinates":[-83.70046,32.68514]},"properties":{"project":"GPC_18153","utility":"GPC","name":"ECHECONNEE","confidence":"low","method":"approximate: Nominatim place/hamlet (town/street level, not the substation itself)"}},{"type":"Feature","geometry":{"type":"Point","coordinates":[-83.40252,33.30448]},"properties":{"project":"GPC_20590","utility":"GPC","name":"EATONTON PRIMARY","confidence":"high","method":"OSM name match (exact (ignoring qualifiers))"}},{"type":"Feature","geometry":{"type":"Point","coordinates":[-81.92495,31.60311]},"properties":{"project":"GPC_11821","utility":"GPC","name":"JESUP","confidence":"medium","method":"OSM name match (exact)"}},{"type":"Feature","geometry":{"type":"Point","coordinates":[-81.7437,31.7216]},"properties":{"project":"GPC_11821","utility":"GPC","name":"LUDOWICI PRIMARY","confidence":"high","method":"OSM name match (exact)"}},{"type":"Feature","geometry":{"type":"Point","coordinates":[-83.73995,32.56338]},"properties":{"project":"GPC_13787","utility":"GPC","name":"AULTMAN ROAD","confidence":"low","method":"OSM name match (fuzzy 0.96)"}},{"type":"Feature","geometry":{"type":"Point","coordinates":[-83.60002,32.56479]},"properties":{"project":"GPC_13787","utility":"GPC","name":"BONAIRE PRIMARY","confidence":"high","method":"OSM name match (exact)"}},{"type":"Feature","geometry":{"type":"Point","coordinates":[-84.21343,33.93256]},"properties":{"project":"GPC_20464","utility":"GPC","name":"NORCROSS","confidence":"high","method":"OSM name match (exact)"}},{"type":"Feature","geometry":{"type":"Point","coordinates":[-83.22799,30.88165]},"properties":{"project":"GPC_19631","utility":"GPC","name":"PINE GROVE PRIMARY","confidence":"high","method":"OSM name match (exact)"}},{"type":"Feature","geometry":{"type":"Point","coordinates":[-81.04838,32.06683]},"properties":{"project":"GPC_20067","utility":"GPC","name":"DEPTFORD","confidence":"high","method":"OSM name match (exact)"}},{"type":"Feature","geometry":{"type":"Point","coordinates":[-81.08618,32.02269]},"properties":{"project":"GPC_20067","utility":"GPC","name":"MAGNOLIA","confidence":"high","method":"OSM name match (exact)"}},{"type":"Feature","geometry":{"type":"Point","coordinates":[-84.85487,33.74102]},"properties":{"project":"GPC_20431","utility":"GPC","name":"VILLA RICA","confidence":"high","method":"OSM name match (exact)"}},{"type":"Feature","geometry":{"type":"Point","coordinates":[-84.99422,33.35868]},"properties":{"project":"GPC_18774","utility":"GPC","name":"HEARD COUNTY","confidence":"high","method":"OSM name match (exact)"}},{"type":"Feature","geometry":{"type":"Point","coordinates":[-84.99809,33.35163]},"properties":{"project":"GPC_18774","utility":"GPC","name":"TENASKA","confidence":"medium","method":"OSM name match (all name words present)"}},{"type":"Feature","geometry":{"type":"Point","coordinates":[-82.63628,34.00183]},"properties":{"project":"GPC_20010","utility":"GPC","name":"ANTHONY SHOALS","confidence":"high","method":"OSM name match (exact)"}},{"type":"Feature","geometry":{"type":"Point","coordinates":[-82.7532,33.7065]},"properties":{"project":"GPC_20010","utility":"GPC","name":"WASHINGTON","confidence":"medium","method":"OSM name match (exact)"}},{"type":"Feature","geometry":{"type":"Point","coordinates":[-84.51964,31.61393]},"properties":{"project":"GPC_18691","utility":"GPC","name":"LIZARD LOPE","confidence":"low","method":"approximate: Nominatim highway/residential (town/street level, not the substation itself)"}},{"type":"Feature","geometry":{"type":"Point","coordinates":[-84.2113,31.58934]},"properties":{"project":"GPC_18691","utility":"GPC","name":"WESTOVER","confidence":"low","method":"approximate: Nominatim place/hamlet (town/street level, not the substation itself)"}},{"type":"Feature","geometry":{"type":"Point","coordinates":[-84.24214,34.67037]},"properties":{"project":"GPC_19597","utility":"GPC","name":"BUZZARD ROOST","confidence":"low","method":"approximate: Nominatim natural/peak (town/street level, not the substation itself)"}},{"type":"Feature","geometry":{"type":"Point","coordinates":[-84.50801,34.18576]},"properties":{"project":"GPC_18960","utility":"GPC","name":"BLANKETS CREEK","confidence":"high","method":"OSM name match (exact)"}},{"type":"Feature","geometry":{"type":"Point","coordinates":[-84.51311,34.08661]},"properties":{"project":"GPC_18960","utility":"GPC","name":"WOODSTOCK","confidence":"high","method":"OSM name match (exact)"}},{"type":"Feature","geometry":{"type":"Point","coordinates":[-84.9861,34.75997]},"properties":{"project":"GPC_18679","utility":"GPC","name":"EAST DALTON","confidence":"low","method":"approximate: Nominatim highway/residential (town/street level, not the substation itself)"}},{"type":"Feature","geometry":{"type":"Point","coordinates":[-85.01439,34.48148]},"properties":{"project":"GPC_18679","utility":"GPC","name":"OOSTANAULA","confidence":"low","method":"approximate: Nominatim place/hamlet (town/street level, not the substation itself)"}},{"type":"Feature","geometry":{"type":"Point","coordinates":[-81.96812,33.46864]},"properties":{"project":"GPC_16007","utility":"GPC","name":"FENWICK STREET","confidence":"medium","method":"manual: OSM substation + street match"}},{"type":"Feature","geometry":{"type":"Point","coordinates":[-81.93313,33.44266]},"properties":{"project":"GPC_16007","utility":"GPC","name":"SAND BAR FERRY","confidence":"low","method":"manual: OSM substation near street"}},{"type":"Feature","geometry":{"type":"Point","coordinates":[-85.08056,32.60956]},"properties":{"project":"GPC_20516","utility":"GPC","name":"GOAT ROCK SWITCH","confidence":"high","method":"OSM name match (exact (ignoring qualifiers))"}},{"type":"Feature","geometry":{"type":"Point","coordinates":[-83.31691,32.88247]},"properties":{"project":"GPC_19618","utility":"GPC","name":"GORDON","confidence":"high","method":"OSM name match (exact)"}},{"type":"Feature","geometry":{"type":"Point","coordinates":[-82.90813,32.54558]},"properties":{"project":"GPC_19618","utility":"GPC","name":"NORTH DUBLIN","confidence":"low","method":"approximate: Nominatim highway/primary (town/street level, not the substation itself)"}},{"type":"Feature","geometry":{"type":"Point","coordinates":[-83.56356,32.99533]},"properties":{"project":"GPC_21139","utility":"GPC","name":"GRADY","confidence":"low","method":"OSM name match (fuzzy 0.89)"}},{"type":"Feature","geometry":{"type":"Point","coordinates":[-84.33346,33.60593]},"properties":{"project":"GPC_21139","utility":"GPC","name":"MORROW","confidence":"high","method":"OSM name match (exact)"}},{"type":"Feature","geometry":{"type":"Point","coordinates":[-83.80967,34.26302]},"properties":{"project":"GPC_19706","utility":"GPC","name":"GAINESVILLE","confidence":"medium","method":"OSM name match (exact)"}},{"type":"Feature","geometry":{"type":"Point","coordinates":[-84.01769,33.66761]},"properties":{"project":"GPC_21137","utility":"GPC","name":"CONYERS","confidence":"low","method":"approximate: Nominatim boundary/administrative (town/street level, not the substation itself)"}},{"type":"Feature","geometry":{"type":"Point","coordinates":[-83.81379,33.67345]},"properties":{"project":"GPC_21137","utility":"GPC","name":"CORNISH MOUNTAIN","confidence":"low","method":"approximate: Nominatim natural/peak (town/street level, not the substation itself)"}},{"type":"Feature","geometry":{"type":"Point","coordinates":[-85.02988,33.03053]},"properties":{"project":"GPC_19334","utility":"GPC","name":"LAGRANGE","confidence":"medium","method":"OSM name match (exact)"}},{"type":"Feature","geometry":{"type":"Point","coordinates":[-82.87976,33.00543]},"properties":{"project":"GPC_19999","utility":"GPC","name":"ROBINS SPRING","confidence":"high","method":"OSM name match (exact)"}},{"type":"Feature","geometry":{"type":"Point","coordinates":[-82.87976,33.00543]},"properties":{"project":"GPC_20001","utility":"GPC","name":"ROBINS SPRING","confidence":"high","method":"OSM name match (exact)"}},{"type":"Feature","geometry":{"type":"Point","coordinates":[-85.34558,34.25121]},"properties":{"project":"GPC_19636","utility":"GPC","name":"HAMMOND","confidence":"low","method":"OSM name match (fuzzy 0.92)"}},{"type":"Feature","geometry":{"type":"Point","coordinates":[-84.75725,34.16957]},"properties":{"project":"GPC_19636","utility":"GPC","name":"WEISS DAM","confidence":"low","method":"approximate: Nominatim natural/water (town/street level, not the substation itself)"}},{"type":"Feature","geometry":{"type":"Point","coordinates":[-83.60997,32.49529]},"properties":{"project":"GPC_20512","utility":"GPC","name":"KATHLEEN","confidence":"low","method":"approximate: Nominatim place/hamlet (town/street level, not the substation itself)"}},{"type":"Feature","geometry":{"type":"Point","coordinates":[-84.90595,33.35112]},"properties":{"project":"GPC_19598","utility":"GPC","name":"DRESDEN","confidence":"high","method":"OSM name match (exact)"}},{"type":"Feature","geometry":{"type":"Point","coordinates":[-85.01568,33.02411]},"properties":{"project":"GPC_19598","utility":"GPC","name":"LAGRANGE PRIMARY","confidence":"medium","method":"OSM name match (exact)"}},{"type":"Feature","geometry":{"type":"Point","coordinates":[-82.81977,33.46826]},"properties":{"project":"GPC_20270","utility":"GPC","name":"RAY PLACE RD","confidence":"low","method":"OSM name match (fuzzy 0.92)"}},{"type":"Feature","geometry":{"type":"Point","coordinates":[-82.7532,33.7065]},"properties":{"project":"GPC_20270","utility":"GPC","name":"WASHINGTON","confidence":"medium","method":"OSM name match (exact)"}},{"type":"Feature","geometry":{"type":"Point","coordinates":[-82.81977,33.46826]},"properties":{"project":"GPC_20271","utility":"GPC","name":"RAY PLACE RD","confidence":"low","method":"OSM name match (fuzzy 0.92)"}},{"type":"Feature","geometry":{"type":"Point","coordinates":[-82.7532,33.7065]},"properties":{"project":"GPC_20271","utility":"GPC","name":"WASHINGTON","confidence":"medium","method":"OSM name match (exact)"}},{"type":"Feature","geometry":{"type":"Point","coordinates":[-84.19435,31.63767]},"properties":{"project":"GPC_18690","utility":"GPC","name":"PALMYRA","confidence":"low","method":"approximate: Nominatim place/hamlet (town/street level, not the substation itself)"}},{"type":"Feature","geometry":{"type":"Point","coordinates":[-81.14446,32.04123]},"properties":{"project":"GPC_20066","utility":"GPC","name":"BOULEVARD","confidence":"high","method":"OSM name match (exact)"}},{"type":"Feature","geometry":{"type":"Point","coordinates":[-81.04838,32.06683]},"properties":{"project":"GPC_20066","utility":"GPC","name":"DEPTFORD","confidence":"high","method":"OSM name match (exact)"}},{"type":"Feature","geometry":{"type":"Point","coordinates":[-81.25315,32.00679]},"properties":{"project":"GPC_19966","utility":"GPC","name":"LITTLE OGEECHEE","confidence":"high","method":"OSM name match (exact)"}},{"type":"Feature","geometry":{"type":"Point","coordinates":[-84.50907,33.55317]},"properties":{"project":"GPC_17900","utility":"GPC","name":"UNION CITY","confidence":"medium","method":"OSM name match (exact (ignoring qualifiers))"}},{"type":"Feature","geometry":{"type":"Point","coordinates":[-84.50907,33.55317]},"properties":{"project":"GPC_20691","utility":"GPC","name":"UNION CITY","confidence":"medium","method":"OSM name match (exact (ignoring qualifiers))"}},{"type":"Feature","geometry":{"type":"Point","coordinates":[-84.20126,33.03207]},"properties":{"project":"GPC_20874","utility":"GPC","name":"BARNESVILLE PRIMARY","confidence":"medium","method":"OSM name match (exact)"}},{"type":"Feature","geometry":{"type":"Point","coordinates":[-84.15297,33.05554]},"properties":{"project":"GPC_20874","utility":"GPC","name":"BARNESVILLE","confidence":"medium","method":"OSM name match (exact)"}},{"type":"Feature","geometry":{"type":"Point","coordinates":[-84.90595,33.35112]},"properties":{"project":"GPC_20273","utility":"GPC","name":"DRESDEN","confidence":"high","method":"OSM name match (exact)"}},{"type":"Feature","geometry":{"type":"Point","coordinates":[-83.31691,32.88247]},"properties":{"project":"GPC_20002","utility":"GPC","name":"GORDON","confidence":"high","method":"OSM name match (exact)"}},{"type":"Feature","geometry":{"type":"Point","coordinates":[-82.80194,32.99848]},"properties":{"project":"GPC_20002","utility":"GPC","name":"SANDERSVILLE","confidence":"medium","method":"OSM name match (exact)"}},{"type":"Feature","geometry":{"type":"Point","coordinates":[-83.56356,32.99533]},"properties":{"project":"GPC_19287","utility":"GPC","name":"GRADY","confidence":"low","method":"OSM name match (fuzzy 0.89)"}},{"type":"Feature","geometry":{"type":"Point","coordinates":[-84.33346,33.60593]},"properties":{"project":"GPC_19363","utility":"GPC","name":"MORROW","confidence":"high","method":"OSM name match (exact)"}},{"type":"Feature","geometry":{"type":"Point","coordinates":[-84.3902,33.64178]},"properties":{"project":"GPC_19363","utility":"GPC","name":"MOUNTAIN VIEW","confidence":"low","method":"approximate: Nominatim place/locality (town/street level, not the substation itself)"}},{"type":"Feature","geometry":{"type":"Point","coordinates":[-84.85487,33.74102]},"properties":{"project":"GPC_19635","utility":"GPC","name":"VILLA RICA","confidence":"high","method":"OSM name match (exact)"}},{"type":"Feature","geometry":{"type":"Point","coordinates":[-84.33346,33.60593]},"properties":{"project":"GPC_19601","utility":"GPC","name":"MORROW","confidence":"high","method":"OSM name match (exact)"}},{"type":"Feature","geometry":{"type":"Point","coordinates":[-84.9042,33.46164]},"properties":{"project":"GPC_19601","utility":"GPC","name":"YATES COMMON","confidence":"high","method":"OSM name match (exact)"}},{"type":"Feature","geometry":{"type":"Point","coordinates":[-85.13916,33.59201]},"properties":{"project":"GPC_15879","utility":"GPC","name":"POSSUM BRANCH","confidence":"low","method":"approximate: Nominatim waterway/stream (town/street level, not the substation itself)"}},{"type":"Feature","geometry":{"type":"Point","coordinates":[-84.9042,33.46164]},"properties":{"project":"GPC_15879","utility":"GPC","name":"YATES COMMON","confidence":"high","method":"OSM name match (exact)"}},{"type":"Feature","geometry":{"type":"Point","coordinates":[-84.67673,33.37809]},"properties":{"project":"GPC_20781","utility":"GPC","name":"SUMMER LAKE","confidence":"medium","method":"OSM name match (all name words present)"}},{"type":"Feature","geometry":{"type":"Point","coordinates":[-83.69879,33.83792]},"properties":{"project":"GPC_20234","utility":"GPC","name":"DOYLE","confidence":"high","method":"OSM name match (exact)"}},{"type":"Feature","geometry":{"type":"Point","coordinates":[-84.24214,34.67037]},"properties":{"project":"GPC_20858","utility":"GPC","name":"BUZZARD ROOST","confidence":"low","method":"approximate: Nominatim natural/peak (town/street level, not the substation itself)"}},{"type":"Feature","geometry":{"type":"Point","coordinates":[-84.74771,33.7515]},"properties":{"project":"GPC_20776","utility":"GPC","name":"DOUGLASVILLE","confidence":"low","method":"approximate: Nominatim boundary/administrative (town/street level, not the substation itself)"}},{"type":"Feature","geometry":{"type":"Point","coordinates":[-84.85487,33.74102]},"properties":{"project":"GPC_20776","utility":"GPC","name":"VILLA RICA","confidence":"high","method":"OSM name match (exact)"}},{"type":"Feature","geometry":{"type":"Point","coordinates":[-83.69879,33.83792]},"properties":{"project":"GPC_20778","utility":"GPC","name":"DOYLE","confidence":"high","method":"OSM name match (exact)"}},{"type":"Feature","geometry":{"type":"Point","coordinates":[-83.75313,33.99546]},"properties":{"project":"GPC_20778","utility":"GPC","name":"WINDER PRIMARY","confidence":"medium","method":"OSM name match (exact)"}},{"type":"Feature","geometry":{"type":"Point","coordinates":[-83.74347,31.24218]},"properties":{"project":"GPC_19358","utility":"GPC","name":"EAST MOULTRIE","confidence":"high","method":"OSM name match (exact)"}},{"type":"Feature","geometry":{"type":"Point","coordinates":[-84.85487,33.74102]},"properties":{"project":"GPC_20505","utility":"GPC","name":"VILLA RICA","confidence":"high","method":"OSM name match (exact)"}},{"type":"Feature","geometry":{"type":"Point","coordinates":[-82.66569,32.90682]},"properties":{"project":"GPC_19622","utility":"GPC","name":"RIDDLEVILLE","confidence":"low","method":"approximate: Nominatim boundary/administrative (town/street level, not the substation itself)"}},{"type":"Feature","geometry":{"type":"Point","coordinates":[-82.56669,31.81069]},"properties":{"project":"GPC_20020","utility":"GPC","name":"SOUTH HAZLEHURST","confidence":"high","method":"OSM name match (exact)"}},{"type":"Feature","geometry":{"type":"Point","coordinates":[-82.37152,31.53937]},"properties":{"project":"GPC_20020","utility":"GPC","name":"NEW LACY","confidence":"low","method":"approximate: Nominatim place/hamlet (town/street level, not the substation itself)"}},{"type":"Feature","geometry":{"type":"Point","coordinates":[-84.58765,33.75355]},"properties":{"project":"GPC_20506","utility":"GPC","name":"SWITCH WAY","confidence":"low","method":"approximate: Nominatim highway/residential (town/street level, not the substation itself)"}},{"type":"Feature","geometry":{"type":"Point","coordinates":[-84.62963,33.79202]},"properties":{"project":"GPC_20506","utility":"GPC","name":"THORNTON ROAD","confidence":"low","method":"approximate: Nominatim highway/trunk (town/street level, not the substation itself)"}},{"type":"Feature","geometry":{"type":"Point","coordinates":[-81.92495,31.60311]},"properties":{"project":"GPC_18668","utility":"GPC","name":"JESUP","confidence":"medium","method":"OSM name match (exact)"}},{"type":"Feature","geometry":{"type":"Point","coordinates":[-82.14366,31.42307]},"properties":{"project":"GPC_18668","utility":"GPC","name":"OFFERMAN","confidence":"high","method":"OSM name match (exact)"}},{"type":"Feature","geometry":{"type":"Point","coordinates":[-83.95566,33.94457]},"properties":{"project":"GPC_10143","utility":"GPC","name":"LAWRENCEVILLE","confidence":"medium","method":"OSM name match (exact)"}},{"type":"Feature","geometry":{"type":"Point","coordinates":[-83.75783,34.02352]},"properties":{"project":"GPC_10143","utility":"GPC","name":"WINDER","confidence":"medium","method":"OSM name match (exact)"}},{"type":"Feature","geometry":{"type":"Point","coordinates":[-83.95566,33.94457]},"properties":{"project":"GPC_10481","utility":"GPC","name":"LAWRENCEVILLE","confidence":"medium","method":"OSM name match (exact)"}},{"type":"Feature","geometry":{"type":"Point","coordinates":[-83.75313,33.99546]},"properties":{"project":"GPC_10481","utility":"GPC","name":"WINDER PRIMARY","confidence":"medium","method":"OSM name match (exact)"}},{"type":"Feature","geometry":{"type":"Point","coordinates":[-82.81977,33.46826]},"properties":{"project":"GPC_20264","utility":"GPC","name":"RAY PLACE RD","confidence":"low","method":"OSM name match (fuzzy 0.92)"}},{"type":"Feature","geometry":{"type":"Point","coordinates":[-82.6873,33.3805]},"properties":{"project":"GPC_20264","utility":"GPC","name":"WARRENTON PRIMARY","confidence":"medium","method":"OSM name match (exact)"}},{"type":"Feature","geometry":{"type":"Point","coordinates":[-82.80194,32.99848]},"properties":{"project":"GPC_19248","utility":"GPC","name":"SANDERSVILLE","confidence":"medium","method":"OSM name match (exact)"}},{"type":"Feature","geometry":{"type":"Point","coordinates":[-82.39747,32.80856]},"properties":{"project":"GPC_19248","utility":"GPC","name":"WADLEY PRIMARY","confidence":"medium","method":"OSM name match (exact (ignoring qualifiers))"}},{"type":"Feature","geometry":{"type":"Point","coordinates":[-81.20947,32.2487]},"properties":{"project":"GPC_20785","utility":"GPC","name":"GOSHEN (SAV)","confidence":"high","method":"OSM name match (exact (ignoring qualifiers))"}},{"type":"Feature","geometry":{"type":"Point","coordinates":[-81.14598,32.14814]},"properties":{"project":"GPC_20785","utility":"GPC","name":"KRAFT","confidence":"high","method":"OSM name match (exact)"}},{"type":"Feature","geometry":{"type":"Point","coordinates":[-81.20947,32.2487]},"properties":{"project":"GPC_20065","utility":"GPC","name":"GOSHEN (SAV)","confidence":"high","method":"OSM name match (exact (ignoring qualifiers))"}},{"type":"Feature","geometry":{"type":"Point","coordinates":[-81.17511,32.35212]},"properties":{"project":"GPC_20065","utility":"GPC","name":"MCINTOSH","confidence":"high","method":"OSM name match (exact)"}},{"type":"Feature","geometry":{"type":"Point","coordinates":[-84.09,33.2714]},"properties":{"project":"GPC_20717","utility":"GPC","name":"TOMOCHICHI","confidence":"low","method":"manual: project description + OSM"}},{"type":"Feature","geometry":{"type":"Point","coordinates":[-83.69888,32.92722]},"properties":{"project":"GPC_18573","utility":"GPC","name":"ARKWRIGHT","confidence":"low","method":"OSM name match (fuzzy 0.94)"}},{"type":"Feature","geometry":{"type":"Point","coordinates":[-83.40252,33.30448]},"properties":{"project":"GPC_20591","utility":"GPC","name":"EATONTON PRIMARY","confidence":"high","method":"OSM name match (exact (ignoring qualifiers))"}},{"type":"Feature","geometry":{"type":"Point","coordinates":[-83.34612,33.9764]},"properties":{"project":"GPC_17977","utility":"GPC","name":"ATHENA","confidence":"high","method":"OSM name match (exact)"}},{"type":"Feature","geometry":{"type":"Point","coordinates":[-83.38476,33.86055]},"properties":{"project":"GPC_17977","utility":"GPC","name":"EAST WATKINSVILLE","confidence":"high","method":"OSM name match (exact)"}},{"type":"Feature","geometry":{"type":"Point","coordinates":[-83.73995,32.56338]},"properties":{"project":"GPC_19997","utility":"GPC","name":"AULTMAN ROAD","confidence":"low","method":"OSM name match (fuzzy 0.96)"}},{"type":"Feature","geometry":{"type":"Point","coordinates":[-83.70202,32.45538]},"properties":{"project":"GPC_19997","utility":"GPC","name":"PERRY","confidence":"high","method":"OSM name match (exact (ignoring qualifiers))"}},{"type":"Feature","geometry":{"type":"Point","coordinates":[-84.9596,33.7418]},"properties":{"project":"GPC_20797","utility":"GPC","name":"EAST VILLA RICA","confidence":"low","method":"OSM name match (fuzzy 0.93)"}},{"type":"Feature","geometry":{"type":"Point","coordinates":[-84.85487,33.74102]},"properties":{"project":"GPC_20774","utility":"GPC","name":"VILLA RICA","confidence":"high","method":"OSM name match (exact)"}},{"type":"Feature","geometry":{"type":"Point","coordinates":[-83.29241,31.72933]},"properties":{"project":"GPC_21048","utility":"GPC","name":"FITZGERALD","confidence":"high","method":"OSM name match (exact)"}},{"type":"Feature","geometry":{"type":"Point","coordinates":[-83.54072,31.94462]},"properties":{"project":"GPC_21048","utility":"GPC","name":"PITTS","confidence":"low","method":"approximate: Nominatim boundary/administrative (town/street level, not the substation itself)"}},{"type":"Feature","geometry":{"type":"Point","coordinates":[-84.15297,33.05554]},"properties":{"project":"GPC_08458","utility":"GPC","name":"BARNESVILLE","confidence":"medium","method":"OSM name match (exact)"}},{"type":"Feature","geometry":{"type":"Point","coordinates":[-83.45405,31.21408]},"properties":{"project":"GPC_20503","utility":"GPC","name":"BARNEYVILLE","confidence":"low","method":"approximate: Nominatim place/hamlet (town/street level, not the substation itself)"}},{"type":"Feature","geometry":{"type":"Point","coordinates":[-83.74347,31.24218]},"properties":{"project":"GPC_20503","utility":"GPC","name":"EAST MOULTRIE","confidence":"high","method":"OSM name match (exact)"}},{"type":"Feature","geometry":{"type":"Point","coordinates":[-83.60002,32.56479]},"properties":{"project":"GPC_20873","utility":"GPC","name":"BONAIRE PRIMARY","confidence":"high","method":"OSM name match (exact)"}},{"type":"Feature","geometry":{"type":"Point","coordinates":[-83.51451,33.73737]},"properties":{"project":"GPC_19992","utility":"GPC","name":"BOSTWICK","confidence":"low","method":"approximate: Nominatim boundary/administrative (town/street level, not the substation itself)"}},{"type":"Feature","geometry":{"type":"Point","coordinates":[-83.67933,33.67415]},"properties":{"project":"GPC_19992","utility":"GPC","name":"EAST SOCIAL CIRCLE","confidence":"high","method":"OSM name match (exact)"}},{"type":"Feature","geometry":{"type":"Point","coordinates":[-84.14416,30.88231]},"properties":{"project":"GPC_19629","utility":"GPC","name":"BRUMBLEY CREEK","confidence":"low","method":"approximate: Nominatim waterway/stream (town/street level, not the substation itself)"}},{"type":"Feature","geometry":{"type":"Point","coordinates":[-84.48892,30.83961]},"properties":{"project":"GPC_19629","utility":"GPC","name":"SOUTH BAINBRIDGE","confidence":"high","method":"OSM name match (exact)"}},{"type":"Feature","geometry":{"type":"Point","coordinates":[-84.00503,30.90852]},"properties":{"project":"GPC_19630","utility":"GPC","name":"THOMASVILLE","confidence":"high","method":"OSM name match (exact)"}},{"type":"Feature","geometry":{"type":"Point","coordinates":[-85.18882,32.91876]},"properties":{"project":"GPC_20482","utility":"GPC","name":"WEST POINT DAM (USA)","confidence":"high","method":"OSM name match (exact (ignoring qualifiers))"}},{"type":"Feature","geometry":{"type":"Point","coordinates":[-84.89696,33.45763]},"properties":{"project":"GPC_20656","utility":"GPC","name":"PLANT YATES","confidence":"high","method":"OSM name match (exact)"}},{"type":"Feature","geometry":{"type":"Point","coordinates":[-81.22691,32.10772]},"properties":{"project":"GPC_20783","utility":"GPC","name":"COLEMAN","confidence":"medium","method":"OSM name match (exact)"}},{"type":"Feature","geometry":{"type":"Point","coordinates":[-81.18872,32.08351]},"properties":{"project":"GPC_20783","utility":"GPC","name":"DEAN FOREST","confidence":"high","method":"OSM name match (exact)"}},{"type":"Feature","geometry":{"type":"Point","coordinates":[-81.08618,32.02269]},"properties":{"project":"GPC_20407","utility":"GPC","name":"MAGNOLIA","confidence":"high","method":"OSM name match (exact)"}},{"type":"Feature","geometry":{"type":"Point","coordinates":[-81.07194,32.04038]},"properties":{"project":"GPC_20407","utility":"GPC","name":"TRUMAN PARKWAY","confidence":"low","method":"approximate: Nominatim highway/motorway (town/street level, not the substation itself)"}},{"type":"Feature","geometry":{"type":"Point","coordinates":[-84.9596,33.7418]},"properties":{"project":"GPC_21069","utility":"GPC","name":"EAST VILLA RICA","confidence":"low","method":"OSM name match (fuzzy 0.93)"}},{"type":"Feature","geometry":{"type":"Point","coordinates":[-83.6262,32.82035]},"properties":{"project":"GPC_20768","utility":"GPC","name":"SOUTH MACON","confidence":"high","method":"OSM name match (exact)"}},{"type":"Feature","geometry":{"type":"Point","coordinates":[-84.50907,33.55317]},"properties":{"project":"GPC_20274","utility":"GPC","name":"UNION CITY","confidence":"medium","method":"OSM name match (exact (ignoring qualifiers))"}},{"type":"Feature","geometry":{"type":"Point","coordinates":[-84.89696,33.45763]},"properties":{"project":"GPC_20274","utility":"GPC","name":"YATES","confidence":"high","method":"OSM name match (exact)"}},{"type":"Feature","geometry":{"type":"Point","coordinates":[-84.47687,33.50734]},"properties":{"project":"GPC_21062","utility":"GPC","name":"ASHLEY PARK","confidence":"low","method":"approximate: Nominatim place/neighbourhood (town/street level, not the substation itself)"}},{"type":"Feature","geometry":{"type":"Point","coordinates":[-85.03077,33.41096]},"properties":{"project":"GPC_21062","utility":"GPC","name":"WANSLEY","confidence":"high","method":"OSM name match (exact)"}},{"type":"Feature","geometry":{"type":"Point","coordinates":[-84.90598,31.37155]},"properties":{"project":"GPC_10222","utility":"GPC","name":"BLAKELY PRIMARY","confidence":"high","method":"OSM name match (exact)"}},{"type":"Feature","geometry":{"type":"Point","coordinates":[-84.95178,31.57114]},"properties":{"project":"GPC_10222","utility":"GPC","name":"HUCKLEBERRY","confidence":"low","method":"approximate: Nominatim waterway/stream (town/street level, not the substation itself)"}},{"type":"Feature","geometry":{"type":"Point","coordinates":[-83.65169,32.78892]},"properties":{"project":"GPC_21047","utility":"GPC","name":"BROADWAY","confidence":"low","method":"approximate: Nominatim highway/primary (town/street level, not the substation itself)"}},{"type":"Feature","geometry":{"type":"Point","coordinates":[-83.70046,32.68514]},"properties":{"project":"GPC_21047","utility":"GPC","name":"ECHECONNEE","confidence":"low","method":"approximate: Nominatim place/hamlet (town/street level, not the substation itself)"}},{"type":"Feature","geometry":{"type":"Point","coordinates":[-84.28973,32.57102]},"properties":{"project":"GPC_16887","utility":"GPC","name":"BUTLER","confidence":"high","method":"OSM name match (exact (ignoring qualifiers))"}},{"type":"Feature","geometry":{"type":"Point","coordinates":[-84.26648,32.94656]},"properties":{"project":"GPC_16887","utility":"GPC","name":"THOMASTON","confidence":"medium","method":"OSM name match (exact)"}},{"type":"Feature","geometry":{"type":"Point","coordinates":[-84.24214,34.67037]},"properties":{"project":"GPC_21036","utility":"GPC","name":"BUZZARD ROOST","confidence":"low","method":"approximate: Nominatim natural/peak (town/street level, not the substation itself)"}},{"type":"Feature","geometry":{"type":"Point","coordinates":[-84.01769,33.66761]},"properties":{"project":"GPC_21142","utility":"GPC","name":"CONYERS","confidence":"low","method":"approximate: Nominatim boundary/administrative (town/street level, not the substation itself)"}},{"type":"Feature","geometry":{"type":"Point","coordinates":[-84.12449,33.63698]},"properties":{"project":"GPC_21142","utility":"GPC","name":"KLONDIKE","confidence":"high","method":"OSM name match (exact)"}},{"type":"Feature","geometry":{"type":"Point","coordinates":[-83.40396,33.30177]},"properties":{"project":"GPC_21138","utility":"GPC","name":"GLENWOOD SPRINGS","confidence":"low","method":"approximate: Nominatim highway/tertiary (town/street level, not the substation itself)"}},{"type":"Feature","geometry":{"type":"Point","coordinates":[-83.8938,33.57511]},"properties":{"project":"GPC_21138","utility":"GPC","name":"PORTERDALE PRIMARY","confidence":"low","method":"approximate: Nominatim boundary/administrative (town/street level, not the substation itself)"}},{"type":"Feature","geometry":{"type":"Point","coordinates":[-84.20126,33.03207]},"properties":{"project":"GPC_21112","utility":"GPC","name":"BARNESVILLE PRIMARY","confidence":"medium","method":"OSM name match (exact)"}},{"type":"Feature","geometry":{"type":"Point","coordinates":[-84.26648,32.94656]},"properties":{"project":"GPC_21112","utility":"GPC","name":"THOMASTON","confidence":"medium","method":"OSM name match (exact)"}},{"type":"Feature","geometry":{"type":"Point","coordinates":[-83.88235,33.86812]},"properties":{"project":"GPC_10814","utility":"GPC","name":"BAY CREEK","confidence":"high","method":"OSM name match (exact)"}},{"type":"Feature","geometry":{"type":"Point","coordinates":[-83.60002,32.56479]},"properties":{"project":"GPC_21140","utility":"GPC","name":"BONAIRE PRIMARY","confidence":"high","method":"OSM name match (exact)"}},{"type":"Feature","geometry":{"type":"Point","coordinates":[-83.16142,32.2133]},"properties":{"project":"GPC_21140","utility":"GPC","name":"EASTMAN PRIMARY","confidence":"high","method":"OSM name match (exact)"}},{"type":"Feature","geometry":{"type":"Point","coordinates":[-84.59465,33.64483]},"properties":{"project":"GPC_20849","utility":"GPC","name":"CLIFTONDALE","confidence":"low","method":"approximate: Nominatim place/suburb (town/street level, not the substation itself)"}},{"type":"Feature","geometry":{"type":"Point","coordinates":[-84.54664,33.33839]},"properties":{"project":"GPC_20849","utility":"GPC","name":"LINE CREEK","confidence":"low","method":"approximate: Nominatim waterway/stream (town/street level, not the substation itself)"}},{"type":"Feature","geometry":{"type":"Point","coordinates":[-84.90595,33.35112]},"properties":{"project":"GPC_19950","utility":"GPC","name":"DRESDEN","confidence":"high","method":"OSM name match (exact)"}},{"type":"Feature","geometry":{"type":"Point","coordinates":[-84.69217,32.5883]},"properties":{"project":"GPC_19950","utility":"GPC","name":"TALBOT","confidence":"medium","method":"OSM name match (all name words present)"}},{"type":"Feature","geometry":{"type":"Point","coordinates":[-84.28341,34.17419]},"properties":{"project":"GPC_20760","utility":"GPC","name":"HOPEWELL","confidence":"high","method":"OSM name match (exact)"}},{"type":"Feature","geometry":{"type":"Point","coordinates":[-84.99809,33.35163]},"properties":{"project":"GPC_21123","utility":"GPC","name":"TENASKA","confidence":"medium","method":"OSM name match (all name words present)"}},{"type":"Feature","geometry":{"type":"Point","coordinates":[-85.03077,33.41096]},"properties":{"project":"GPC_21123","utility":"GPC","name":"WANSLEY","confidence":"high","method":"OSM name match (exact)"}},{"type":"Feature","geometry":{"type":"Point","coordinates":[-83.84101,33.32061]},"properties":{"project":"GPC_21141","utility":"GPC","name":"LLOYD SHOALS","confidence":"high","method":"OSM name match (exact (ignoring qualifiers))"}},{"type":"Feature","geometry":{"type":"Point","coordinates":[-83.8938,33.57511]},"properties":{"project":"GPC_21141","utility":"GPC","name":"PORTERDALE PRIMARY","confidence":"low","method":"approximate: Nominatim boundary/administrative (town/street level, not the substation itself)"}},{"type":"Feature","geometry":{"type":"Point","coordinates":[-84.65363,33.70699]},"properties":{"project":"GPC_20285","utility":"GPC","name":"LOWER RIVER","confidence":"low","method":"approximate: Nominatim highway/residential (town/street level, not the substation itself)"}},{"type":"Feature","geometry":{"type":"Point","coordinates":[-84.25937,34.09732]},"properties":{"project":"GPC_20285","utility":"GPC","name":"WEBB","confidence":"low","method":"approximate: Nominatim place/locality (town/street level, not the substation itself)"}},{"type":"Feature","geometry":{"type":"Point","coordinates":[-83.8738,34.27288]},"properties":{"project":"GPC_19621","utility":"GPC","name":"MCEVER ROAD","confidence":"high","method":"OSM name match (exact)"}},{"type":"Feature","geometry":{"type":"Point","coordinates":[-83.64027,33.87113]},"properties":{"project":"GPC_19621","utility":"GPC","name":"SHOAL CREEK","confidence":"low","method":"approximate: Nominatim waterway/river (town/street level, not the substation itself)"}},{"type":"Feature","geometry":{"type":"Point","coordinates":[-81.54414,31.21587]},"properties":{"project":"GPC_20346","utility":"GPC","name":"MCMANUS","confidence":"high","method":"OSM name match (exact)"}},{"type":"Feature","geometry":{"type":"Point","coordinates":[-81.55866,31.27991]},"properties":{"project":"GPC_20346","utility":"GPC","name":"WEST BRUNSWICK","confidence":"high","method":"OSM name match (exact)"}},{"type":"Feature","geometry":{"type":"Point","coordinates":[-83.73995,32.56338]},"properties":{"project":"GPC_17706","utility":"GPC","name":"AULTMAN ROAD","confidence":"low","method":"OSM name match (fuzzy 0.96)"}},{"type":"Feature","geometry":{"type":"Point","coordinates":[-83.87226,32.56136]},"properties":{"project":"GPC_17706","utility":"GPC","name":"FORT VALLEY","confidence":"high","method":"OSM name match (exact)"}},{"type":"Feature","geometry":{"type":"Point","coordinates":[-84.2113,31.58934]},"properties":{"project":"GPC_11051","utility":"GPC","name":"WESTOVER","confidence":"low","method":"approximate: Nominatim place/hamlet (town/street level, not the substation itself)"}},{"type":"Feature","geometry":{"type":"Point","coordinates":[-84.21343,33.93256]},"properties":{"project":"GPC_20757","utility":"GPC","name":"NORCROSS","confidence":"high","method":"OSM name match (exact)"}},{"type":"Feature","geometry":{"type":"Point","coordinates":[-84.31938,33.82059]},"properties":{"project":"GPC_20757","utility":"GPC","name":"NORTH DRUID HILLS","confidence":"low","method":"approximate: Nominatim boundary/census (town/street level, not the substation itself)"}},{"type":"Feature","geometry":{"type":"Point","coordinates":[-81.14446,32.04123]},"properties":{"project":"GPC_21006","utility":"GPC","name":"BOULEVARD","confidence":"high","method":"OSM name match (exact)"}},{"type":"Feature","geometry":{"type":"Point","coordinates":[-81.08618,32.02269]},"properties":{"project":"GPC_21006","utility":"GPC","name":"MAGNOLIA","confidence":"high","method":"OSM name match (exact)"}},{"type":"Feature","geometry":{"type":"Point","coordinates":[-81.18872,32.08351]},"properties":{"project":"GPC_21023","utility":"GPC","name":"DEAN FOREST","confidence":"high","method":"OSM name match (exact)"}},{"type":"Feature","geometry":{"type":"Point","coordinates":[-81.25315,32.00679]},"properties":{"project":"GPC_21023","utility":"GPC","name":"LITTLE OGEECHEE","confidence":"high","method":"OSM name match (exact)"}},{"type":"Feature","geometry":{"type":"Point","coordinates":[-84.48892,30.83961]},"properties":{"project":"GPC_13628","utility":"GPC","name":"SOUTH BAINBRIDGE","confidence":"high","method":"OSM name match (exact)"}},{"type":"Feature","geometry":{"type":"Point","coordinates":[-84.90079,30.66382]},"properties":{"project":"GPC_13628","utility":"GPC","name":"SINAI","confidence":"high","method":"OSM name match (exact)"}},{"type":"Feature","geometry":{"type":"Point","coordinates":[-83.88235,33.86812]},"properties":{"project":"GPC_20248","utility":"GPC","name":"BAY CREEK","confidence":"high","method":"OSM name match (exact)"}},{"type":"Feature","geometry":{"type":"Point","coordinates":[-84.01769,33.66761]},"properties":{"project":"GPC_20248","utility":"GPC","name":"CONYERS","confidence":"low","method":"approximate: Nominatim boundary/administrative (town/street level, not the substation itself)"}},{"type":"Feature","geometry":{"type":"Point","coordinates":[-85.34558,34.25121]},"properties":{"project":"GPC_21129","utility":"GPC","name":"HAMMOND","confidence":"low","method":"OSM name match (fuzzy 0.92)"}},{"type":"Feature","geometry":{"type":"Point","coordinates":[-84.47142,33.82548]},"properties":{"project":"GPC_20764","utility":"GPC","name":"ATKINSON","confidence":"medium","method":"OSM name match (all name words present)"}},{"type":"Feature","geometry":{"type":"Point","coordinates":[-84.4076,33.78836]},"properties":{"project":"GPC_20764","utility":"GPC","name":"NORTHSIDE DRIVE","confidence":"low","method":"approximate: Nominatim highway/trunk (town/street level, not the substation itself)"}},{"type":"Feature","geometry":{"type":"Point","coordinates":[-84.47142,33.82548]},"properties":{"project":"GPC_20761","utility":"GPC","name":"ATKINSON","confidence":"medium","method":"OSM name match (all name words present)"}},{"type":"Feature","geometry":{"type":"Point","coordinates":[-83.52712,34.51149]},"properties":{"project":"GPC_10478","utility":"GPC","name":"CORNELIA","confidence":"low","method":"approximate: Nominatim boundary/administrative (town/street level, not the substation itself)"}},{"type":"Feature","geometry":{"type":"Point","coordinates":[-84.13358,34.37812]},"properties":{"project":"GPC_18669","utility":"GPC","name":"DAWSON CROSSING","confidence":"high","method":"OSM name match (exact)"}},{"type":"Feature","geometry":{"type":"Point","coordinates":[-84.37877,34.3866]},"properties":{"project":"GPC_18669","utility":"GPC","name":"NELSON","confidence":"high","method":"OSM name match (exact)"}},{"type":"Feature","geometry":{"type":"Point","coordinates":[-84.46297,33.67635]},"properties":{"project":"GPC_21097","utility":"GPC","name":"EAST POINT","confidence":"high","method":"OSM name match (exact (ignoring qualifiers))"}},{"type":"Feature","geometry":{"type":"Point","coordinates":[-84.46297,33.67635]},"properties":{"project":"GPC_20480","utility":"GPC","name":"EAST POINT","confidence":"high","method":"OSM name match (exact (ignoring qualifiers))"}},{"type":"Feature","geometry":{"type":"Point","coordinates":[-83.70046,32.68514]},"properties":{"project":"GPC_19627","utility":"GPC","name":"ECHECONNEE","confidence":"low","method":"approximate: Nominatim place/hamlet (town/street level, not the substation itself)"}},{"type":"Feature","geometry":{"type":"Point","coordinates":[-83.80967,34.26302]},"properties":{"project":"GPC_12120","utility":"GPC","name":"GAINESVILLE","confidence":"medium","method":"OSM name match (exact)"}},{"type":"Feature","geometry":{"type":"Point","coordinates":[-83.8738,34.27288]},"properties":{"project":"GPC_12120","utility":"GPC","name":"MCEVER ROAD","confidence":"high","method":"OSM name match (exact)"}},{"type":"Feature","geometry":{"type":"Point","coordinates":[-83.40396,33.30177]},"properties":{"project":"GPC_20298","utility":"GPC","name":"GLENWOOD SPRINGS","confidence":"low","method":"approximate: Nominatim highway/tertiary (town/street level, not the substation itself)"}},{"type":"Feature","geometry":{"type":"Point","coordinates":[-82.96548,32.85294]},"properties":{"project":"GPC_20298","utility":"GPC","name":"LAKE OCONEE","confidence":"medium","method":"OSM name match (exact (ignoring qualifiers))"}},{"type":"Feature","geometry":{"type":"Point","coordinates":[-85.08056,32.60956]},"properties":{"project":"GPC_21128","utility":"GPC","name":"GOAT ROCK","confidence":"high","method":"OSM name match (exact (ignoring qualifiers))"}},{"type":"Feature","geometry":{"type":"Point","coordinates":[-82.6873,33.3805]},"properties":{"project":"GPC_19996","utility":"GPC","name":"WARRENTON PRIMARY","confidence":"medium","method":"OSM name match (exact)"}},{"type":"Feature","geometry":{"type":"Point","coordinates":[-83.31691,32.88247]},"properties":{"project":"GPC_20428","utility":"GPC","name":"GORDON","confidence":"high","method":"OSM name match (exact)"}},{"type":"Feature","geometry":{"type":"Point","coordinates":[-82.80194,32.99848]},"properties":{"project":"GPC_20428","utility":"GPC","name":"SANDERSVILLE","confidence":"medium","method":"OSM name match (exact)"}},{"type":"Feature","geometry":{"type":"Point","coordinates":[-81.9953,33.3198]},"properties":{"project":"GPC_21116","utility":"GPC","name":"GOSHEN","confidence":"medium","method":"manual: OSM + project description"}},{"type":"Feature","geometry":{"type":"Point","coordinates":[-84.09,33.2714]},"properties":{"project":"GPC_21073","utility":"GPC","name":"TOMOCHICHI","confidence":"low","method":"manual: project description + OSM"}},{"type":"Feature","geometry":{"type":"Point","coordinates":[-84.24214,34.67037]},"properties":{"project":"GPC_21014","utility":"GPC","name":"BUZZARD ROOST","confidence":"low","method":"approximate: Nominatim natural/peak (town/street level, not the substation itself)"}},{"type":"Feature","geometry":{"type":"Point","coordinates":[-83.38476,33.86055]},"properties":{"project":"GPC_20375","utility":"GPC","name":"EAST WATKINSVILLE","confidence":"high","method":"OSM name match (exact)"}},{"type":"Feature","geometry":{"type":"Point","coordinates":[-81.43066,31.80577]},"properties":{"project":"GPC_21131","utility":"GPC","name":"MIDWAY","confidence":"low","method":"approximate: Nominatim boundary/administrative (town/street level, not the substation itself)"}},{"type":"Feature","geometry":{"type":"Point","coordinates":[-83.21877,33.32764]},"properties":{"project":"GPC_21077","utility":"GPC","name":"ROCKVILLE","confidence":"low","method":"approximate: Nominatim place/hamlet (town/street level, not the substation itself)"}},{"type":"Feature","geometry":{"type":"Point","coordinates":[-84.69217,32.5883]},"properties":{"project":"GPC_21076","utility":"GPC","name":"TALBOT","confidence":"medium","method":"OSM name match (all name words present)"}},{"type":"Feature","geometry":{"type":"Point","coordinates":[-84.44022,32.37948]},"properties":{"project":"GPC_21076","utility":"GPC","name":"TAZEWELL","confidence":"low","method":"approximate: Nominatim boundary/census (town/street level, not the substation itself)"}},{"type":"Feature","geometry":{"type":"Point","coordinates":[-82.98158,33.09451]},"properties":{"project":"GPC_21094","utility":"GPC","name":"TIGER CREEK","confidence":"high","method":"OSM name match (exact)"}},{"type":"Feature","geometry":{"type":"Point","coordinates":[-83.21877,33.32764]},"properties":{"project":"GPC_21094","utility":"GPC","name":"ROCKVILLE","confidence":"low","method":"approximate: Nominatim place/hamlet (town/street level, not the substation itself)"}},{"type":"Feature","geometry":{"type":"Point","coordinates":[-83.57948,33.9778]},"properties":{"project":"GPC_20789","utility":"GPC","name":"JEFFERSON ROAD","confidence":"low","method":"OSM name match (fuzzy 0.92)"}},{"type":"Feature","geometry":{"type":"Point","coordinates":[-83.75313,33.99546]},"properties":{"project":"GPC_20789","utility":"GPC","name":"WINDER PRIMARY","confidence":"medium","method":"OSM name match (exact)"}},{"type":"Feature","geometry":{"type":"Point","coordinates":[-83.22799,30.88165]},"properties":{"project":"GPC_20284","utility":"GPC","name":"PINE GROVE PRIMARY","confidence":"high","method":"OSM name match (exact)"}},{"type":"Feature","geometry":{"type":"Point","coordinates":[-83.34612,33.9764]},"properties":{"project":"GPC_21118","utility":"GPC","name":"ATHENA","confidence":"high","method":"OSM name match (exact)"}},{"type":"Feature","geometry":{"type":"Point","coordinates":[-82.67084,33.40645]},"properties":{"project":"GPC_21118","utility":"GPC","name":"WARRENTON","confidence":"medium","method":"OSM name match (exact)"}},{"type":"Feature","geometry":{"type":"Point","coordinates":[-83.35273,34.58095]},"properties":{"project":"GPC_19995","utility":"GPC","name":"TOCCOA","confidence":"high","method":"OSM name match (exact (ignoring qualifiers))"}},{"type":"Feature","geometry":{"type":"Point","coordinates":[-84.32796,32.8948]},"properties":{"project":"GPC_20160","utility":"GPC","name":"THOMASTON 230","confidence":"low","method":"approximate: Nominatim place/house (town/street level, not the substation itself)"}},{"type":"Feature","geometry":{"type":"Point","coordinates":[-84.56699,30.91255]},"properties":{"project":"GPC_18848","utility":"GPC","name":"BAINBRIDGE","confidence":"high","method":"OSM name match (exact)"}},{"type":"Feature","geometry":{"type":"Point","coordinates":[-84.46297,33.67635]},"properties":{"project":"GPC_20690","utility":"GPC","name":"EAST POINT","confidence":"high","method":"OSM name match (exact (ignoring qualifiers))"}},{"type":"Feature","geometry":{"type":"Point","coordinates":[-84.50907,33.55317]},"properties":{"project":"GPC_20690","utility":"GPC","name":"UNION CITY","confidence":"medium","method":"OSM name match (exact (ignoring qualifiers))"}},{"type":"Feature","geometry":{"type":"Point","coordinates":[-84.38576,34.21699]},"properties":{"project":"GPC_19632","utility":"GPC","name":"AVERY","confidence":"high","method":"OSM name match (exact)"}},{"type":"Feature","geometry":{"type":"Point","coordinates":[-84.28341,34.17419]},"properties":{"project":"GPC_19632","utility":"GPC","name":"HOPEWELL","confidence":"high","method":"OSM name match (exact)"}},{"type":"Feature","geometry":{"type":"Point","coordinates":[-84.92233,34.12158]},"properties":{"project":"GPC_10811","utility":"GPC","name":"BOWEN","confidence":"high","method":"OSM name match (exact)"}},{"type":"Feature","geometry":{"type":"Point","coordinates":[-82.35297,31.93168]},"properties":{"project":"GPC_20756","utility":"GPC","name":"HATCH","confidence":"high","method":"OSM name match (exact)"}},{"type":"Feature","geometry":{"type":"Point","coordinates":[-82.39747,32.80856]},"properties":{"project":"GPC_20756","utility":"GPC","name":"WADLEY","confidence":"medium","method":"OSM name match (exact)"}},{"type":"Feature","geometry":{"type":"Point","coordinates":[-83.39603,31.77757]},"properties":{"project":"GPC_21114","utility":"GPC","name":"SOUTH GRIFFIN","confidence":"low","method":"approximate: Nominatim waterway/dam (town/street level, not the substation itself)"}},{"type":"Feature","geometry":{"type":"Point","coordinates":[-81.22691,32.10772]},"properties":{"project":"GPC_20784","utility":"GPC","name":"COLEMAN","confidence":"medium","method":"OSM name match (exact)"}},{"type":"Feature","geometry":{"type":"Point","coordinates":[-81.36838,32.15528]},"properties":{"project":"GPC_20784","utility":"GPC","name":"MELDRIM","confidence":"high","method":"OSM name match (exact)"}},{"type":"Feature","geometry":{"type":"Point","coordinates":[-83.69888,32.92722]},"properties":{"project":"GPC_20767","utility":"GPC","name":"ARKWRIGHT","confidence":"low","method":"OSM name match (fuzzy 0.94)"}},{"type":"Feature","geometry":{"type":"Point","coordinates":[-83.88235,33.86812]},"properties":{"project":"GPC_20758","utility":"GPC","name":"BAY CREEK","confidence":"high","method":"OSM name match (exact)"}},{"type":"Feature","geometry":{"type":"Point","coordinates":[-84.01769,33.66761]},"properties":{"project":"GPC_20758","utility":"GPC","name":"CONYERS","confidence":"low","method":"approximate: Nominatim boundary/administrative (town/street level, not the substation itself)"}},{"type":"Feature","geometry":{"type":"Point","coordinates":[-82.16865,33.54399]},"properties":{"project":"GPC_20793","utility":"GPC","name":"EVANS PRIMARY","confidence":"high","method":"OSM name match (exact)"}},{"type":"Feature","geometry":{"type":"Point","coordinates":[-82.19593,33.66013]},"properties":{"project":"GPC_20793","utility":"GPC","name":"THURMOND DAM (USA) #5","confidence":"high","method":"OSM name match (exact (ignoring qualifiers))"}},{"type":"Feature","geometry":{"type":"Point","coordinates":[-82.16865,33.54399]},"properties":{"project":"GPC_20794","utility":"GPC","name":"EVANS PRIMARY","confidence":"high","method":"OSM name match (exact)"}},{"type":"Feature","geometry":{"type":"Point","coordinates":[-82.19593,33.66013]},"properties":{"project":"GPC_20794","utility":"GPC","name":"THURMOND DAM (USA) #6","confidence":"high","method":"OSM name match (exact (ignoring qualifiers))"}},{"type":"Feature","geometry":{"type":"Point","coordinates":[-83.39809,34.05344]},"properties":{"project":"GPC_12217","utility":"GPC","name":"CENTER PRIMARY","confidence":"high","method":"OSM name match (exact)"}},{"type":"Feature","geometry":{"type":"Point","coordinates":[-83.49822,34.04122]},"properties":{"project":"GPC_12217","utility":"GPC","name":"CLARKSBORO","confidence":"low","method":"approximate: Nominatim place/hamlet (town/street level, not the substation itself)"}},{"type":"Feature","geometry":{"type":"Point","coordinates":[-83.49822,34.04122]},"properties":{"project":"GPC_20773","utility":"GPC","name":"CLARKSBORO","confidence":"low","method":"approximate: Nominatim place/hamlet (town/street level, not the substation itself)"}},{"type":"Feature","geometry":{"type":"Point","coordinates":[-83.75313,33.99546]},"properties":{"project":"GPC_20773","utility":"GPC","name":"WINDER PRIMARY","confidence":"medium","method":"OSM name match (exact)"}},{"type":"Feature","geometry":{"type":"Point","coordinates":[-83.67933,33.67415]},"properties":{"project":"GPC_12147","utility":"GPC","name":"EAST SOCIAL CIRCLE","confidence":"high","method":"OSM name match (exact)"}},{"type":"Feature","geometry":{"type":"Point","coordinates":[-84.04812,33.83887]},"properties":{"project":"GPC_12147","utility":"GPC","name":"SNELLVILLE","confidence":"high","method":"OSM name match (exact)"}},{"type":"Feature","geometry":{"type":"Point","coordinates":[-83.35861,34.42254]},"properties":{"project":"GPC_21075","utility":"GPC","name":"MIDDLE FORK","confidence":"low","method":"approximate: Nominatim waterway/river (town/street level, not the substation itself)"}},{"type":"Feature","geometry":{"type":"Point","coordinates":[-83.64027,33.87113]},"properties":{"project":"GPC_20791","utility":"GPC","name":"SHOAL CREEK","confidence":"low","method":"approximate: Nominatim waterway/river (town/street level, not the substation itself)"}},{"type":"Feature","geometry":{"type":"Point","coordinates":[-83.80258,34.21861]},"properties":{"project":"GPC_20791","utility":"GPC","name":"SOUTH HALL","confidence":"high","method":"OSM name match (exact)"}},{"type":"Feature","geometry":{"type":"Point","coordinates":[-83.8738,34.27288]},"properties":{"project":"GPC_21053","utility":"GPC","name":"MCEVER ROAD","confidence":"high","method":"OSM name match (exact)"}},{"type":"Feature","geometry":{"type":"Point","coordinates":[-83.64027,33.87113]},"properties":{"project":"GPC_21053","utility":"GPC","name":"SHOAL CREEK","confidence":"low","method":"approximate: Nominatim waterway/river (town/street level, not the substation itself)"}},{"type":"Feature","geometry":{"type":"Point","coordinates":[-84.33701,34.32645]},"properties":{"project":"GPC_09661","utility":"GPC","name":"MCGRAU FORD","confidence":"high","method":"OSM name match (exact)"}},{"type":"Feature","geometry":{"type":"Point","coordinates":[-83.48822,34.45843]},"properties":{"project":"GPC_09661","utility":"GPC","name":"MIDDLE FORK","confidence":"low","method":"approximate: Nominatim waterway/dam (town/street level, not the substation itself)"}},{"type":"Feature","geometry":{"type":"Point","coordinates":[-81.36838,32.15528]},"properties":{"project":"GPC_20796","utility":"GPC","name":"MELDRIM","confidence":"high","method":"OSM name match (exact)"}},{"type":"Feature","geometry":{"type":"Point","coordinates":[-82.41422,33.45396]},"properties":{"project":"GPC_14222","utility":"GPC","name":"THOMSON PRIMARY","confidence":"medium","method":"OSM name match (exact)"}},{"type":"Feature","geometry":{"type":"Point","coordinates":[-83.75313,33.99546]},"properties":{"project":"GPC_20759","utility":"GPC","name":"WINDER PRIMARY","confidence":"medium","method":"OSM name match (exact)"}},{"type":"Feature","geometry":{"type":"Point","coordinates":[-83.22799,30.88165]},"properties":{"project":"GPC_10487","utility":"GPC","name":"PINE GROVE PRIMARY","confidence":"high","method":"OSM name match (exact)"}},{"type":"Feature","geometry":{"type":"Point","coordinates":[-83.25434,30.84606]},"properties":{"project":"GPC_10487","utility":"GPC","name":"WEST VALDOSTA","confidence":"low","method":"OSM name match (fuzzy 0.92)"}},{"type":"Feature","geometry":{"type":"Point","coordinates":[-84.13358,34.37812]},"properties":{"project":"GPC_18700","utility":"GPC","name":"DAWSON CROSSING","confidence":"high","method":"OSM name match (exact)"}},{"type":"Feature","geometry":{"type":"Point","coordinates":[-83.80967,34.26302]},"properties":{"project":"GPC_18700","utility":"GPC","name":"GAINESVILLE","confidence":"medium","method":"OSM name match (exact)"}},{"type":"Feature","geometry":{"type":"Point","coordinates":[-81.25315,32.00679]},"properties":{"project":"GPC_20787","utility":"GPC","name":"LITTLE OGEECHEE","confidence":"high","method":"OSM name match (exact)"}},{"type":"Feature","geometry":{"type":"Point","coordinates":[-82.16865,33.54399]},"properties":{"project":"GPC_17993","utility":"GPC","name":"EVANS PRIMARY","confidence":"high","method":"OSM name match (exact)"}},{"type":"Feature","geometry":{"type":"Point","coordinates":[-82.41422,33.45396]},"properties":{"project":"GPC_17993","utility":"GPC","name":"THOMSON PRIMARY","confidence":"medium","method":"OSM name match (exact)"}}]}